STARLINK-35679          
1 66408U 25257AE  25328.16668980 -.01977291  00000+0 -16835-1 0  9990
2 66408  53.1592 352.9863 0000882  94.7058 334.1805 15.71911204  3512
CHUTIAN-2 A             
1 66409U 25256A   25328.16205392  .00000066  00000+0  28323-4 0  9996
2 66409  98.2786  33.2517 0012758 236.0578 123.9404 14.49902137  2186
CHUTIAN-2 B             
1 66410U 25256B   25328.22630315  .00000733  00000+0  19631-3 0  9994
2 66410  98.2813  33.3297 0012828 240.0563 119.9359 14.50987697  2193
ZK-1A R/B               
1 66411U 25256C   25324.72402141  .00011214  00000+0  48988-3 0  9993
2 66411  98.3243  30.9055 0232353 318.4537  39.9225 15.01236100  1741
HULIANWANG DIGUI 13A    
1 66412U 25258A   25327.12304205 -.00000249  00000+0 -37221-4 0  9992
2 66412  50.0043 344.5328 0013886 290.1344  69.8076 14.25711743  1867
HULIANWANG DIGUI 13B    
1 66413U 25258B   25327.34008797 -.00000236  00000+0 -33661-4 0  9994
2 66413  50.0035 343.6745 0013389 289.1023  70.8440 14.23476725  1898
HULIANWANG DIGUI 13C    
1 66414U 25258C   25327.33710990 -.00000251  00000+0 -40152-4 0  9999
2 66414  50.0053 343.6681 0013635 288.5641  71.3791 14.23502047  1893
HULIANWANG DIGUI 13D    
1 66415U 25258D   25326.56065765 -.00000188  00000+0 -11421-4 0  9993
2 66415  50.0048 346.8921 0013056 293.5399  66.4143 14.25899858  1788
HULIANWANG DIGUI 13E    
1 66416U 25258E   25327.33515610 -.00000257  00000+0 -42583-4 0  9999
2 66416  50.0052 343.6581 0012805 296.4132  63.5466 14.23463176  1895
HULIANWANG DIGUI 13F    
1 66417U 25258F   25325.85970392 -.00000226  00000+0 -28530-4 0  9999
2 66417  50.0021 349.8393 0012602 292.3047  67.6530 14.24387717  1687
HULIANWANG DIGUI 13G    
1 66418U 25258G   25326.13860382 -.00000192  00000+0 -13163-4 0  9997
2 66418  50.0021 348.6466 0012098 285.7809  74.1771 14.26084022  1727
HULIANWANG DIGUI 13H    
1 66419U 25258H   25326.34750266 -.00000177  00000+0 -66674-5 0  9999
2 66419  50.0012 347.7500 0011497 289.6382  70.3291 14.26239877  1756
